NORAD_CAT_ID,OBJECT_NAME,OBJECT_TYPE,EPOCH,MEAN_MOTION,ECCENTRICITY,INCLINATION,RA_OF_ASC_NODE,ARG_OF_PERICENTER,MEAN_ANOMALY,BSTAR,MEAN_MOTION_DOT,MEAN_MOTION_DDOT,TLE_LINE0,TLE_LINE1,TLE_LINE2,SEMIMAJOR_AXIS,PERIOD,APOGEE,PERIGEE,DECAYED
55295.0,STARLINK-5293,PAYLOAD,2024-07-24 22:25:58,14.98337561,0.000325,69.9998,99.1355,265.5662,94.5126,-0.00033763,-4.12e-05,0.0,0 STARLINK-5293,1 55295U 23010AC  24206.93470069 -.00004120  00000-0 -33763-3 0  9998,2 55295  69.9998  99.1355 0003250 265.5662  94.5126 14.98337561 83995,6950.17,96.107,574.293,569.776,0.0
55295.0,STARLINK-5293,PAYLOAD,2024-07-25 03:14:21,14.98335923,0.0003153,70.0011,98.6311,270.3896,89.6902,-0.00020066,-2.487e-05,0.0,0 STARLINK-5293,1 55295U 23010AC  24207.13497433 -.00002487  00000-0 -20066-3 0  9991,2 55295  70.0011  98.6311 0003153 270.3896  89.6902 14.98335923 83712,6950.175,96.107,574.231,569.848,0.0
55295.0,STARLINK-5293,PAYLOAD,2024-07-25 22:27:58,14.98334509,0.0003468,70.0008,96.611,268.638,91.4382,0.00074919,8.859e-05,0.0,0 STARLINK-5293,1 55295U 23010AC  24207.93609909  .00008859  00000-0  74919-3 0  9995,2 55295  70.0008  96.6110 0003468 268.6380  91.4382 14.98334509 84140,6950.179,96.107,574.454,569.634,0.0
55295.0,STARLINK-5293,PAYLOAD,2024-07-26 03:16:22,14.98360493,0.000361,70.0006,96.1062,264.5815,95.4932,0.0012513,0.00014881,0.0,0 STARLINK-5293,1 55295U 23010AC  24208.13637225  .00014881  00000-0  12513-2 0  9993,2 55295  70.0006  96.1062 0003610 264.5815  95.4932 14.98360493 83860,6950.099,96.105,574.473,569.455,0.0
55295.0,STARLINK-5293,PAYLOAD,2024-07-26 16:05:27,14.98355872,0.000215,70.0038,94.7581,281.8907,78.2011,0.00064017,7.559e-05,0.0,0 STARLINK-5293,1 55295U 23010AC  24208.67045175  .00007559  00000-0  64017-3 0  9990,2 55295  70.0038  94.7581 0002150 281.8907  78.2011 14.98355872 83948,6950.113,96.105,573.472,570.484,0.0
55295.0,STARLINK-5293,PAYLOAD,2024-07-27 22:32:00,14.98329966,0.0002924,70.0019,91.5633,263.1373,96.9454,-0.0001258,-1.594e-05,0.0,0 STARLINK-5293,1 55295U 23010AC  24209.93889097 -.00001594  00000-0 -12580-3 0  9992,2 55295  70.0019  91.5633 0002924 263.1373  96.9454 14.98329966 84448,6950.193,96.107,574.09,570.026,0.0
55295.0,STARLINK-5293,PAYLOAD,2024-07-28 01:44:17,14.98330729,0.000271,70.0009,91.2259,269.0988,90.9861,-0.00010858,-1.388e-05,0.0,0 STARLINK-5293,1 55295U 23010AC  24210.07241913 -.00001388  00000-0 -10858-3 0  9995,2 55295  70.0009  91.2259 0002710 269.0988  90.9861 14.98330729 84151,6950.191,96.107,573.939,570.172,0.0
55295.0,STARLINK-5293,PAYLOAD,2024-07-28 22:34:01,14.9833351,0.0003206,69.9995,89.0368,270.5995,89.4797,7.3384e-05,7.83e-06,0.0,0 STARLINK-5293,1 55295U 23010AC  24210.94029156  .00000783  00000-0  73384-4 0  9994,2 55295  69.9995  89.0368 0003206 270.5995  89.4797 14.98333510 84594,6950.182,96.107,574.275,569.819,0.0
55295.0,STARLINK-5293,PAYLOAD,2024-07-29 01:46:17,14.98336125,0.0003153,69.9996,88.7001,270.7998,89.28,9.8108e-05,1.078e-05,0.0,0 STARLINK-5293,1 55295U 23010AC  24211.07380907  .00001078  00000-0  98108-4 0  9992,2 55295  69.9996  88.7001 0003153 270.7998  89.2800 14.98336125 84308,6950.174,96.107,574.23,569.848,0.0
55295.0,STARLINK-5293,PAYLOAD,2024-07-29 14:35:21,14.98329712,0.0003102,69.9996,87.3535,270.6466,89.4338,0.00015252,1.727e-05,0.0,0 STARLINK-5293,1 55295U 23010AC  24211.60789170  .00001727  00000-0  15252-3 0  9995,2 55295  69.9996  87.3535 0003102 270.6466  89.4338 14.98329712 84692,6950.194,96.107,574.215,569.903,0.0
55295.0,STARLINK-5293,PAYLOAD,2024-07-29 22:36:01,14.98333909,0.0003091,69.9996,86.5119,270.588,89.4925,0.00019153,2.193e-05,0.0,0 STARLINK-5293,1 55295U 23010AC  24211.94168875  .00002193  00000-0  19153-3 0  9997,2 55295  69.9996  86.5119 0003091 270.5880  89.4925 14.98333909 84748,6950.181,96.107,574.194,569.898,0.0
55295.0,STARLINK-5293,PAYLOAD,2024-07-30 01:48:17,14.98336654,0.0003065,69.9997,86.1752,270.458,89.6228,0.00022263,2.565e-05,0.0,0 STARLINK-5293,1 55295U 23010AC  24212.07520667  .00002565  00000-0  22263-3 0  9992,2 55295  69.9997  86.1752 0003065 270.4580  89.6228 14.98336654 84451,6950.172,96.107,574.168,569.907,0.0
55295.0,STARLINK-5293,PAYLOAD,2024-07-30 22:38:02,14.98337628,0.0003014,69.9997,83.9868,270.4428,89.6386,0.00010495,1.16e-05,0.0,0 STARLINK-5293,1 55295U 23010AC  24212.94308637  .00001160  00000-0  10495-3 0  9993,2 55295  69.9997  83.9868 0003014 270.4428  89.6386 14.98337628 84894,6950.169,96.107,574.129,569.94,0.0
55295.0,STARLINK-5293,PAYLOAD,2024-07-31 09:50:59,14.9833157,0.0002912,70.0004,82.8084,272.1158,87.9667,9.3428e-05,1.022e-05,0.0,0 STARLINK-5293,1 55295U 23010AC  24213.41040936  .00001022  00000-0  93428-4 0  9996,2 55295  70.0004  82.8084 0002912 272.1158  87.9667 14.98331570 84656,6950.188,96.107,574.077,570.029,0.0
55295.0,STARLINK-5293,PAYLOAD,2024-07-31 21:03:56,14.98324216,0.0002989,69.9999,81.6304,272.442,87.6396,-9.7398e-05,-1.255e-05,0.0,0 STARLINK-5293,1 55295U 23010AC  24213.87773774 -.00001255  00000-0 -97398-4 0  9999,2 55295  69.9999  81.6304 0002989 272.4420  87.6396 14.98324216 84720,6950.211,96.107,574.153,569.998,0.0
55295.0,STARLINK-5293,PAYLOAD,2024-07-31 22:40:04,14.98326824,0.0002985,69.9996,81.4618,272.9397,87.142,-7.0979e-05,-9.4e-06,0.0,0 STARLINK-5293,1 55295U 23010AC  24213.94449539 -.00000940  00000-0 -70979-4 0  9992,2 55295  69.9996  81.4618 0002985 272.9397  87.1420 14.98326824 85043,6950.203,96.107,574.142,569.993,0.0
55295.0,STARLINK-5293,PAYLOAD,2024-08-01 08:16:52,14.9833431,0.0002986,69.9997,80.4521,270.8539,89.2278,1.3111e-05,6.3e-07,0.0,0 STARLINK-5293,1 55295U 23010AC  24214.34504821  .00000063  00000-0  13111-4 0  9992,2 55295  69.9997  80.4521 0002986 270.8539  89.2278 14.98334310 84796,6950.18,96.107,574.12,569.969,0.0
55295.0,STARLINK-5293,PAYLOAD,2024-08-01 22:42:03,14.98369278,0.0003141,69.9994,78.9372,266.1776,93.9023,-0.00034296,-4.187e-05,0.0,0 STARLINK-5293,1 55295U 23010AC  24214.94587496 -.00004187  00000-0 -34296-3 0  9996,2 55295  69.9994  78.9372 0003141 266.1776  93.9023 14.98369278 85190,6950.071,96.104,574.119,569.753,0.0
55295.0,STARLINK-5293,PAYLOAD,2024-08-02 00:18:10,14.98401408,0.0003285,69.9995,78.7688,263.5253,96.5533,-0.00088176,-0.00010618,0.0,0 STARLINK-5293,1 55295U 23010AC  24215.01262702 -.00010618  00000-0 -88176-3 0  9997,2 55295  69.9995  78.7688 0003285 263.5253  96.5533 14.98401408 84892,6949.972,96.102,574.12,569.554,0.0
55295.0,STARLINK-5293,PAYLOAD,2024-08-02 14:43:25,14.98322182,0.0002907,69.9999,77.2536,268.6095,91.4731,0.00012047,1.344e-05,0.0,0 STARLINK-5293,1 55295U 23010AC  24215.61349186  .00001344  00000-0  12047-3 0  9993,2 55295  69.9999  77.2536 0002907 268.6095  91.4731 14.98322182 85292,6950.217,96.108,574.102,570.062,0.0
55295.0,STARLINK-5293,PAYLOAD,2024-08-02 21:07:58,14.98320946,0.000319,69.9993,76.5804,272.2941,87.7852,0.00010838,1.2e-05,0.0,0 STARLINK-5293,1 55295U 23010AC  24215.88053459  .00001200  00000-0  10838-3 0  9994,2 55295  69.9993  76.5804 0003190 272.2941  87.7852 14.98320946 85021,6950.221,96.108,574.303,569.869,0.0
55295.0,STARLINK-5293,PAYLOAD,2024-08-02 22:44:06,14.98324454,0.0003195,69.9991,76.4119,272.7294,87.3499,8.322e-05,9e-06,0.0,0 STARLINK-5293,1 55295U 23010AC  24215.94729337  .00000900  00000-0  83220-4 0  9998,2 55295  69.9991  76.4119 0003195 272.7294  87.3499 14.98324454 85344,6950.21,96.107,574.296,569.854,0.0
55295.0,STARLINK-5293,PAYLOAD,2024-08-03 08:20:54,14.98330707,0.0003106,69.9995,75.4021,271.7809,88.2995,9.3009e-05,1.017e-05,0.0,0 STARLINK-5293,1 55295U 23010AC  24216.34785088  .00001017  00000-0  93009-4 0  9994,2 55295  69.9995  75.4021 0003106 271.7809  88.2995 14.98330707 85093,6950.191,96.107,574.214,569.897,0.0
55295.0,STARLINK-5293,PAYLOAD,2024-08-03 14:45:26,14.98335629,0.0003105,69.9995,74.7293,272.6659,87.4145,3.8673e-05,3.69e-06,0.0,0 STARLINK-5293,1 55295U 23010AC  24216.61488865  .00000369  00000-0  38673-4 0  9992,2 55295  69.9995  74.7293 0003105 272.6659  87.4145 14.98335629 85443,6950.175,96.107,574.199,569.882,0.0
55295.0,STARLINK-5293,PAYLOAD,2024-08-03 21:09:58,14.98338485,0.0003038,69.9994,74.055,269.7948,90.2862,0.00013774,1.551e-05,0.0,0 STARLINK-5293,1 55295U 23010AC  24216.88192409  .00001551  00000-0  13774-3 0  9995,2 55295  69.9994  74.0550 0003038 269.7948  90.2862 14.98338485 85175,6950.167,96.106,574.143,569.92,0.0
55295.0,STARLINK-5293,PAYLOAD,2024-08-03 22:46:06,14.98343671,0.000309,69.9994,73.8866,270.9041,89.1764,8.5112e-05,9.23e-06,0.0,0 STARLINK-5293,1 55295U 23010AC  24216.94868153  .00000923  00000-0  85112-4 0  9996,2 55295  69.9994  73.8866 0003090 270.9041  89.1764 14.98343671 85494,6950.151,96.106,574.163,569.868,0.0
55295.0,STARLINK-5293,PAYLOAD,2024-08-04 14:47:27,14.98328926,0.0003036,70.001,72.2036,274.3271,85.7542,0.00016813,1.914e-05,0.0,0 STARLINK-5293,1 55295U 23010AC  24217.61628950  .00001914  00000-0  16813-3 0  9992,2 55295  70.0010  72.2036 0003036 274.3271  85.7542 14.98328926 85594,6950.196,96.107,574.171,569.951,0.0
55295.0,STARLINK-5293,PAYLOAD,2024-08-04 21:11:59,14.98336522,0.0003008,70.0,71.5305,273.3623,86.7192,0.00021648,2.491e-05,0.0,0 STARLINK-5293,1 55295U 23010AC  24217.88332321  .00002491  00000-0  21648-3 0  9998,2 55295  70.0000  71.5305 0003008 273.3623  86.7192 14.98336522 85327,6950.173,96.107,574.128,569.947,0.0
55295.0,STARLINK-5293,PAYLOAD,2024-08-04 22:48:07,14.98336587,0.0003046,69.9998,71.362,273.4644,86.6166,0.00025733,2.979e-05,0.0,0 STARLINK-5293,1 55295U 23010AC  24217.95008236  .00002979  00000-0  25733-3 0  9991,2 55295  69.9998  71.3620 0003046 273.4644  86.6166 14.98336587 85640,6950.173,96.107,574.155,569.92,0.0
55295.0,STARLINK-5293,PAYLOAD,2024-08-05 19:37:52,14.98332241,0.0002937,69.9997,69.1737,272.709,87.3733,4.496e-05,4.44e-06,0.0,0 STARLINK-5293,1 55295U 23010AC  24218.81796751  .00000444  00000-0  44960-4 0  9992,2 55295  69.9997  69.1737 0002937 272.7090  87.3733 14.98332241 85469,6950.186,96.107,574.092,570.01,0.0
